{
    "links": {
        "self": "http://www.neowsapp.com/rest/v1/neo/3553287?api_key=iIulBulltgU6a56xZRHN4H3l9WmuAYTsLGpBGhQ2"
    },
    "id": "3553287",
    "neo_reference_id": "3553287",
    "name": "(2010 XG25)",
    "designation": "2010 XG25",
    "nasa_jpl_url": "http://ssd.jpl.nasa.gov/sbdb.cgi?sstr=3553287",
    "absolute_magnitude_h": 24.8,
    "estimated_diameter": {
        "kilometers": {
            "estimated_diameter_min": 0.0291443905,
            "estimated_diameter_max": 0.0651688382
        },
        "meters": {
            "estimated_diameter_min": 29.1443904535,
            "estimated_diameter_max": 65.1688382168
        },
        "miles": {
            "estimated_diameter_min": 0.018109479,
            "estimated_diameter_max": 0.0404940262
        },
        "feet": {
            "estimated_diameter_min": 95.6180819754,
            "estimated_diameter_max": 213.8085311752
        }
    },
    "is_potentially_hazardous_asteroid": false,
    "close_approach_data": [
        {
            "close_approach_date": "2010-12-14",
            "close_approach_date_full": "2010-Dec-14 19:56",
            "epoch_date_close_approach": 1292356560000,
            "relative_velocity": {
                "kilometers_per_second": "7.3956814184",
                "kilometers_per_hour": "26624.4531063488",
                "miles_per_hour": "16543.3997648866"
            },
            "miss_distance": {
                "astronomical": "0.0719474489",
                "lunar": "27.9875576221",
                "kilometers": "10763185.107373843",
                "miles": "6687933.1021433134"
            },
            "orbiting_body": "Earth"
        }
    ],
    "orbital_data": {
        "orbit_id": "12",
        "orbit_determination_date": "2017-04-06 08:55:16",
        "first_observation_date": "2010-12-09",
        "last_observation_date": "2011-01-08",
        "data_arc_in_days": 30,
        "observations_used": 47,
        "orbit_uncertainty": "7",
        "minimum_orbit_intersection": ".0665062",
        "jupiter_tisserand_invariant": "3.428",
        "epoch_osculation": "2459000.5",
        "eccentricity": ".5320155174843959",
        "semi_major_axis": "2.233735876909079",
        "inclination": "8.158481651762074",
        "ascending_node_longitude": "255.8773331964128",
        "orbital_period": "1219.39990352776",
        "perihelion_distance": "1.045353728431834",
        "perihelion_argument": "194.0656007683032",
        "aphelion_distance": "3.422118025386323",
        "perihelion_time": "2459217.086663809644",
        "mean_anomaly": "296.0577290961737",
        "mean_motion": ".2952271842555582",
        "equinox": "J2000",
        "orbit_class": {
            "orbit_class_type": "AMO",
            "orbit_class_description": "Near-Earth asteroid orbits similar to that of 1221 Amor",
            "orbit_class_range": "1.017 AU < q (perihelion) < 1.3 AU"
        }
    },
    "is_sentry_object": false
}